CCSDS_OMM_VERS = 2.0
CREATION_DATE  = 
ORIGINATOR     = 

OBJECT_NAME    = SL-4 R/B
OBJECT_ID      = 2014-021B
CENTER_NAME    = EARTH
REF_FRAME      = TEME
TIME_SYSTEM    = UTC
MEAN_ELEMENT_THEORY = SGP/SGP4

EPOCH          = 2025-12-28T03:45:44.270496
MEAN_MOTION    = 15.37036693
ECCENTRICITY   = .01004966
INCLINATION    = 51.6090
RA_OF_ASC_NODE = 325.6498
ARG_OF_PERICENTER = 201.9034
MEAN_ANOMALY   = 157.7639

EPHEMERIS_TYPE = 0
CLASSIFICATION_TYPE = U
NORAD_CAT_ID   = 39679
ELEMENT_SET_NO = 999
REV_AT_EPOCH   = 64526
BSTAR          = .31403368E-3
MEAN_MOTION_DOT = .13292E-3
MEAN_MOTION_DDOT = 0

CCSDS_OMM_VERS = 2.0
CREATION_DATE  = 
ORIGINATOR     = 

OBJECT_NAME    = ALOS-2
OBJECT_ID      = 2014-029A
CENTER_NAME    = EARTH
REF_FRAME      = TEME
TIME_SYSTEM    = UTC
MEAN_ELEMENT_THEORY = SGP/SGP4

EPOCH          = 2025-12-28T13:39:33.399648
MEAN_MOTION    = 14.79482488
ECCENTRICITY   = .000155
INCLINATION    = 97.9214
RA_OF_ASC_NODE = 97.1897
ARG_OF_PERICENTER = 98.6859
MEAN_ANOMALY   = 261.4528

EPHEMERIS_TYPE = 0
CLASSIFICATION_TYPE = U
NORAD_CAT_ID   = 39766
ELEMENT_SET_NO = 999
REV_AT_EPOCH   = 62635
BSTAR          = .9108E-3
MEAN_MOTION_DOT = .6759E-4
MEAN_MOTION_DDOT = 0

CCSDS_OMM_VERS = 2.0
CREATION_DATE  = 
ORIGINATOR     = 

OBJECT_NAME    = YAOGAN-29
OBJECT_ID      = 2015-069A
CENTER_NAME    = EARTH
REF_FRAME      = TEME
TIME_SYSTEM    = UTC
MEAN_ELEMENT_THEORY = SGP/SGP4

EPOCH          = 2025-12-28T13:00:05.677632
MEAN_MOTION    = 14.82898913
ECCENTRICITY   = .0001081
INCLINATION    = 98.0211
RA_OF_ASC_NODE = 25.7631
ARG_OF_PERICENTER = 158.2182
MEAN_ANOMALY   = 201.9078

EPHEMERIS_TYPE = 0
CLASSIFICATION_TYPE = U
NORAD_CAT_ID   = 41038
ELEMENT_SET_NO = 999
REV_AT_EPOCH   = 54533
BSTAR          = .47565E-4
MEAN_MOTION_DOT = .331E-5
MEAN_MOTION_DDOT = 0

CCSDS_OMM_VERS = 2.0
CREATION_DATE  = 
ORIGINATOR     = 

OBJECT_NAME    = ASTRO-H (HITOMI)
OBJECT_ID      = 2016-012A
CENTER_NAME    = EARTH
REF_FRAME      = TEME
TIME_SYSTEM    = UTC
MEAN_ELEMENT_THEORY = SGP/SGP4

EPOCH          = 2025-12-28T08:42:21.621600
MEAN_MOTION    = 15.09459045
ECCENTRICITY   = .0009647
INCLINATION    = 30.9995
RA_OF_ASC_NODE = 96.6448
ARG_OF_PERICENTER = 335.3147
MEAN_ANOMALY   = 24.7028

EPHEMERIS_TYPE = 0
CLASSIFICATION_TYPE = U
NORAD_CAT_ID   = 41337
ELEMENT_SET_NO = 999
REV_AT_EPOCH   = 54144
BSTAR          = .28896E-3
MEAN_MOTION_DOT = .4839E-4
MEAN_MOTION_DDOT = 0

CCSDS_OMM_VERS = 2.0
CREATION_DATE  = 
ORIGINATOR     = 

OBJECT_NAME    = HXMT (HUIYAN)
OBJECT_ID      = 2017-034A
CENTER_NAME    = EARTH
REF_FRAME      = TEME
TIME_SYSTEM    = UTC
MEAN_ELEMENT_THEORY = SGP/SGP4

EPOCH          = 2025-12-28T12:49:23.778336
MEAN_MOTION    = 15.16431047
ECCENTRICITY   = .0031609
INCLINATION    = 43.0147
RA_OF_ASC_NODE = 51.9695
ARG_OF_PERICENTER = 146.8094
MEAN_ANOMALY   = 213.4744

EPHEMERIS_TYPE = 0
CLASSIFICATION_TYPE = U
NORAD_CAT_ID   = 42758
ELEMENT_SET_NO = 999
REV_AT_EPOCH   = 47173
BSTAR          = .4473E-3
MEAN_MOTION_DOT = .8737E-4
MEAN_MOTION_DDOT = 0

CCSDS_OMM_VERS = 2.0
CREATION_DATE  = 
ORIGINATOR     = 

OBJECT_NAME    = CZ-2C R/B
OBJECT_ID      = 2018-054D
CENTER_NAME    = EARTH
REF_FRAME      = TEME
TIME_SYSTEM    = UTC
MEAN_ELEMENT_THEORY = SGP/SGP4

EPOCH          = 2025-12-28T12:13:50.268576
MEAN_MOTION    = 15.77586265
ECCENTRICITY   = .0013928
INCLINATION    = 35.1327
RA_OF_ASC_NODE = 73.6902
ARG_OF_PERICENTER = 300.0344
MEAN_ANOMALY   = 59.9008

EPHEMERIS_TYPE = 0
CLASSIFICATION_TYPE = U
NORAD_CAT_ID   = 43521
ELEMENT_SET_NO = 999
REV_AT_EPOCH   = 41754
BSTAR          = .88896E-3
MEAN_MOTION_DOT = .157696E-2
MEAN_MOTION_DDOT = 0

CCSDS_OMM_VERS = 2.0
CREATION_DATE  = 
ORIGINATOR     = 

OBJECT_NAME    = SAOCOM 1A
OBJECT_ID      = 2018-076A
CENTER_NAME    = EARTH
REF_FRAME      = TEME
TIME_SYSTEM    = UTC
MEAN_ELEMENT_THEORY = SGP/SGP4

EPOCH          = 2025-12-28T12:53:08.600640
MEAN_MOTION    = 14.82147718
ECCENTRICITY   = .0001335
INCLINATION    = 97.8848
RA_OF_ASC_NODE = 186.7287
ARG_OF_PERICENTER = 84.8151
MEAN_ANOMALY   = 275.3215

EPHEMERIS_TYPE = 0
CLASSIFICATION_TYPE = U
NORAD_CAT_ID   = 43641
ELEMENT_SET_NO = 999
REV_AT_EPOCH   = 39082
BSTAR          = -.13151E-4
MEAN_MOTION_DOT = -.157E-5
MEAN_MOTION_DDOT = 0

CCSDS_OMM_VERS = 2.0
CREATION_DATE  = 
ORIGINATOR     = 

OBJECT_NAME    = H-2A R/B
OBJECT_ID      = 2018-084L
CENTER_NAME    = EARTH
REF_FRAME      = TEME
TIME_SYSTEM    = UTC
MEAN_ELEMENT_THEORY = SGP/SGP4

EPOCH          = 2025-12-28T12:08:06.140832
MEAN_MOTION    = 15.37976102
ECCENTRICITY   = .0026362
INCLINATION    = 98.8770
RA_OF_ASC_NODE = 199.8595
ARG_OF_PERICENTER = 271.1951
MEAN_ANOMALY   = 88.6269

EPHEMERIS_TYPE = 0
CLASSIFICATION_TYPE = U
NORAD_CAT_ID   = 43682
ELEMENT_SET_NO = 999
REV_AT_EPOCH   = 39482
BSTAR          = .70282E-3
MEAN_MOTION_DOT = .26517E-3
MEAN_MOTION_DDOT = 0

CCSDS_OMM_VERS = 2.0
CREATION_DATE  = 
ORIGINATOR     = 

OBJECT_NAME    = SAOCOM 1B
OBJECT_ID      = 2020-059A
CENTER_NAME    = EARTH
REF_FRAME      = TEME
TIME_SYSTEM    = UTC
MEAN_ELEMENT_THEORY = SGP/SGP4

EPOCH          = 2025-12-28T12:00:55.595808
MEAN_MOTION    = 14.82155480
ECCENTRICITY   = .0001453
INCLINATION    = 97.8846
RA_OF_ASC_NODE = 185.7926
ARG_OF_PERICENTER = 86.1872
MEAN_ANOMALY   = 273.9507

EPHEMERIS_TYPE = 0
CLASSIFICATION_TYPE = U
NORAD_CAT_ID   = 46265
ELEMENT_SET_NO = 999
REV_AT_EPOCH   = 28820
BSTAR          = .7161E-4
MEAN_MOTION_DOT = .518E-5
MEAN_MOTION_DDOT = 0

CCSDS_OMM_VERS = 2.0
CREATION_DATE  = 
ORIGINATOR     = 

OBJECT_NAME    = CSS (TIANHE)
OBJECT_ID      = 2021-035A
CENTER_NAME    = EARTH
REF_FRAME      = TEME
TIME_SYSTEM    = UTC
MEAN_ELEMENT_THEORY = SGP/SGP4

EPOCH          = 2025-12-28T11:14:34.335744
MEAN_MOTION    = 15.59804684
ECCENTRICITY   = .0009051
INCLINATION    = 41.4673
RA_OF_ASC_NODE = 281.1738
ARG_OF_PERICENTER = 167.6294
MEAN_ANOMALY   = 192.4768

EPHEMERIS_TYPE = 0
CLASSIFICATION_TYPE = U
NORAD_CAT_ID   = 48274
ELEMENT_SET_NO = 999
REV_AT_EPOCH   = 26648
BSTAR          = .27476E-3
MEAN_MOTION_DOT = .22448E-3
MEAN_MOTION_DDOT = 0

CCSDS_OMM_VERS = 2.0
CREATION_DATE  = 
ORIGINATOR     = 

OBJECT_NAME    = COSMOS 2550
OBJECT_ID      = 2021-056A
CENTER_NAME    = EARTH
REF_FRAME      = TEME
TIME_SYSTEM    = UTC
MEAN_ELEMENT_THEORY = SGP/SGP4

EPOCH          = 2025-12-28T01:11:45.246336
MEAN_MOTION    = 15.33830504
ECCENTRICITY   = .00083728
INCLINATION    = 67.1448
RA_OF_ASC_NODE = 257.6258
ARG_OF_PERICENTER = 269.7459
MEAN_ANOMALY   = 90.2736

EPHEMERIS_TYPE = 0
CLASSIFICATION_TYPE = U
NORAD_CAT_ID   = 48865
ELEMENT_SET_NO = 999
REV_AT_EPOCH   = 25247
BSTAR          = .1296151E-5
MEAN_MOTION_DOT = -.149E-5
MEAN_MOTION_DDOT = 0

CCSDS_OMM_VERS = 2.0
CREATION_DATE  = 
ORIGINATOR     = 

OBJECT_NAME    = CZ-2C R/B
OBJECT_ID      = 2022-058K
CENTER_NAME    = EARTH
REF_FRAME      = TEME
TIME_SYSTEM    = UTC
MEAN_ELEMENT_THEORY = SGP/SGP4

EPOCH          = 2025-12-28T06:58:23.761056
MEAN_MOTION    = 15.49329420
ECCENTRICITY   = .0044355
INCLINATION    = 50.1925
RA_OF_ASC_NODE = 324.1990
ARG_OF_PERICENTER = 262.4097
MEAN_ANOMALY   = 97.1832

EPHEMERIS_TYPE = 0
CLASSIFICATION_TYPE = U
NORAD_CAT_ID   = 52794
ELEMENT_SET_NO = 999
REV_AT_EPOCH   = 19904
BSTAR          = .70496E-3
MEAN_MOTION_DOT = .40673E-3
MEAN_MOTION_DDOT = 0

