SL-4 R/B                
1 39679U 14021B   25362.15676239  .00013292  00000+0  31403-3 0  9999
2 39679  51.6090 325.6498 0100496 201.9034 157.7639 15.37036693645267
ALOS-2                  
1 39766U 14029A   25362.56913657  .00006759  00000+0  91080-3 0  9994
2 39766  97.9214  97.1897 0001550  98.6859 261.4528 14.79482488626357
YAOGAN-29               
1 41038U 15069A   25362.54173238  .00000331  00000+0  47565-4 0  9995
2 41038  98.0211  25.7631 0001081 158.2182 201.9078 14.82898913545330
ASTRO-H (HITOMI)        
1 41337U 16012A   25362.36275025  .00004839  00000+0  28896-3 0  9995
2 41337  30.9995  96.6448 0009647 335.3147  24.7028 15.09459045541447
HXMT (HUIYAN)           
1 42758U 17034A   25362.53430299  .00008737  00000+0  44730-3 0  9999
2 42758  43.0147  51.9695 0031609 146.8094 213.4744 15.16431047471732
CZ-2C R/B               
1 43521U 18054D   25362.50960959  .00157696  00000+0  88896-3 0  9999
2 43521  35.1327  73.6902 0013928 300.0344  59.9008 15.77586265417546
SAOCOM 1A               
1 43641U 18076A   25362.53690510 -.00000157  00000+0 -13151-4 0  9996
2 43641  97.8848 186.7287 0001335  84.8151 275.3215 14.82147718390822
H-2A R/B                
1 43682U 18084L   25362.50562663  .00026517  00000+0  70282-3 0  9997
2 43682  98.8770 199.8595 0026362 271.1951  88.6269 15.37976102394821
SAOCOM 1B               
1 46265U 20059A   25362.50064347  .00000518  00000+0  71610-4 0  9998
2 46265  97.8846 185.7926 0001453  86.1872 273.9507 14.82155480288201
CSS (TIANHE)            
1 48274U 21035A   25362.46845296  .00022448  00000+0  27476-3 0  9996
2 48274  41.4673 281.1738 0009051 167.6294 192.4768 15.59804684266485
COSMOS 2550             
1 48865U 21056A   25362.04982924 -.00000149  00000+0  12962-5 0  9990
2 48865  67.1448 257.6258 0008372 269.7459  90.2736 15.33830504252479
CZ-2C R/B               
1 52794U 22058K   25362.29055279  .00040673  00000+0  70496-3 0  9999
2 52794  50.1925 324.1990 0044355 262.4097  97.1832 15.49329420199042
